IRIDIUM 138             
1 43071U 17083B   24343.67998426  .00000334  00000+0  11227-3 0  9996
2 43071  86.3985 193.8640 0002641  79.7726 280.3768 14.34214471364512
IRIDIUM 116             
1 43072U 17083C   24343.85758242  .00000072  00000+0  18734-4 0  9997
2 43072  86.3997 194.0873 0001816  89.5439 270.5965 14.34217912364579
IRIDIUM 130             
1 43073U 17083D   24343.82587026 -.00000011  00000+0 -10970-4 0  9994
2 43073  86.4007 194.3209 0001709  82.6591 277.4799 14.34217318364518
IRIDIUM 151             
1 43074U 17083E   24344.14933731  .00000592  00000+0  20435-3 0  9997
2 43074  86.3995 194.0104 0001952  91.0831 269.0588 14.34218441364584
IRIDIUM 134             
1 43075U 17083F   24343.35017356  .00000149  00000+0  46117-4 0  9990
2 43075  86.3999 194.3447 0001788  85.4381 274.7019 14.34218972364431
IRIDIUM 137             
1 43076U 17083G   24344.13031906  .00000649  00000+0  22467-3 0  9991
2 43076  86.3999 194.1000 0001788 101.5649 258.5747 14.34216318364612
IRIDIUM 141             
1 43077U 17083H   24343.56582661  .00000588  00000+0  20303-3 0  9996
2 43077  86.3994 194.1984 0002231  80.6984 279.4464 14.34220690364539
IRIDIUM 153             
1 43078U 17083J   24343.93661408 -.00000047  00000+0 -23807-4 0  9990
2 43078  86.3989 162.5704 0002440  82.6252 277.5221 14.34217171365693
IRIDIUM 131             
1 43079U 17083K   24343.83221345  .00000590  00000+0  20351-3 0  9993
2 43079  86.4001 194.2358 0002125  87.6772 272.4667 14.34215641364506
IRIDIUM 144             
1 43249U 18030A   24343.94295500 -.00000038  00000+0 -20521-4 0  9990
2 43249  86.3988 162.5099 0001673  86.3579 273.7808 14.34217307350558
IRIDIUM 149             
1 43250U 18030B   24344.08883456 -.00000005  00000+0 -90096-5 0  9990
2 43250  86.3986 162.4223 0001747  95.5827 264.5568 14.34217570350593
IRIDIUM 157             
1 43251U 18030C   24343.89855734  .00000020  00000+0  12112-6 0  9996
2 43251  86.3982 162.5425 0002068  93.1590 266.9842 14.34217553350540
IRIDIUM 140             
1 43252U 18030D   24344.05713033  .00000260  00000+0  85880-4 0  9997
2 43252  86.3982 162.4905 0001941  87.2633 272.8785 14.34217717350627
IRIDIUM 145             
1 43253U 18030E   24344.04443579 -.00000021  00000+0 -14428-4 0  9999
2 43253  86.3988 162.4689 0001447  90.9285 269.2076 14.34217380350559
IRIDIUM 146             
1 43254U 18030F   24343.88587072  .00000057  00000+0  13341-4 0  9998
2 43254  86.3979 162.5493 0001651  91.2372 268.9012 14.34217549350544
IRIDIUM 148             
1 43255U 18030G   24343.92392606  .00000143  00000+0  43877-4 0  9994
2 43255  86.3983 162.5680 0001829  94.6309 265.5096 14.34218373350587
IRIDIUM 142             
1 43256U 18030H   24343.89221319  .00000217  00000+0  70413-4 0  9991
2 43256  86.3979 162.4906 0001543  97.2441 262.8930 14.34216652350543
IRIDIUM 150             
1 43257U 18030J   24343.93026989 -.00000045  00000+0 -23073-4 0  9994
2 43257  86.3985 162.5726 0001583  91.5291 268.6087 14.34217448350570
IRIDIUM 143             
1 43258U 18030K   24344.05077812 -.00000010  00000+0 -10784-4 0  9997
2 43258  86.3992 162.5934 0001356  89.9766 270.1585 14.34217428350553
IRIDIUM 161             
1 43478U 18047C   24343.89829850  .00001059  00000+0  30872-3 0  9998
2 43478  86.4475 320.5251 0002105  86.8211 273.3230 14.43280651345044
IRIDIUM 152             
1 43479U 18047D   24343.95372549  .00000670  00000+0  23213-3 0  9993
2 43479  86.3948 320.3614 0002328  84.7082 275.4379 14.34221318342904
IRIDIUM 147             
1 43480U 18047E   24343.96007316  .00000177  00000+0  56276-4 0  9991
2 43480  86.3952 320.3542 0002543  88.5292 271.6195 14.34217211342906
IRIDIUM 110             
1 43481U 18047F   24343.89664697  .00000251  00000+0  82495-4 0  9990
2 43481  86.3953 320.4580 0002612  82.0912 278.0580 14.34217634342881
IRIDIUM 162             
1 43482U 18047G   24343.96133557  .00001031  00000+0  30042-3 0  9992
2 43482  86.4474 320.3965 0002490  81.3577 278.7906 14.43281087345043
IRIDIUM 160             
1 43569U 18061A   24343.91225118 -.00000009  00000+0 -10331-4 0  9990
2 43569  86.3951 288.8096 0002224  89.3919 270.7532 14.34217729333781
IRIDIUM 166             
1 43570U 18061B   24343.93761548  .00000341  00000+0  11454-3 0  9999
2 43570  86.3951 288.7564 0001910  83.9945 276.1468 14.34218780333812
IRIDIUM 158             
1 43571U 18061C   24343.90591024  .00000771  00000+0  26829-3 0  9996
2 43571  86.3952 288.7796 0002244  79.0152 281.1296 14.34219168333779
IRIDIUM 165             
1 43572U 18061D   24343.93127809  .00000291  00000+0  97000-4 0  9993
2 43572  86.3954 288.8047 0002182  88.4184 271.7262 14.34216670333809
IRIDIUM 155             
1 43573U 18061E   24343.89322196  .00000775  00000+0  26957-3 0  9994
2 43573  86.3950 288.7172 0002048  77.4652 282.6773 14.34220188333765
IRIDIUM 154             
1 43574U 18061F   24343.94396441  .00000275  00000+0  91218-4 0  9993
2 43574  86.3954 288.8021 0002212  88.0574 272.0875 14.34217952333826
IRIDIUM 163             
1 43575U 18061G   24343.92493639  .00000680  00000+0  23557-3 0  9999
2 43575  86.3950 288.7425 0002257  80.9115 279.2336 14.34218548333790
